NORAD_CAT_ID,OBJECT_NAME,OBJECT_TYPE,EPOCH,MEAN_MOTION,ECCENTRICITY,INCLINATION,RA_OF_ASC_NODE,ARG_OF_PERICENTER,MEAN_ANOMALY,BSTAR,MEAN_MOTION_DOT,MEAN_MOTION_DDOT,TLE_LINE0,TLE_LINE1,TLE_LINE2,SEMIMAJOR_AXIS,PERIOD,APOGEE,PERIGEE,DECAYED
55939.0,STARLINK-5918,PAYLOAD,2023-09-13 13:43:15,14.98332026,0.0002964,70.0009,54.1106,265.982,94.1001,4.0104e-05,3.86e-06,0.0,0 STARLINK-5918,1 55939U 23037AB  23256.57170296  .00000386  00000-0  40104-4 0  9991,2 55939  70.0009  54.1106 0002964 265.9820  94.1001 14.98332026 27955,6950.187,96.107,574.112,569.992,0.0
55939.0,STARLINK-5918,PAYLOAD,2023-09-13 20:07:47,14.98335439,0.0003023,70.0009,53.4373,268.3798,91.7015,7.6165e-05,8.16e-06,0.0,0 STARLINK-5918,1 55939U 23037AB  23256.83873916  .00000816  00000-0  76165-4 0  9993,2 55939  70.0009  53.4373 0003023 268.3798  91.7015 14.98335439 27994,6950.176,96.107,574.142,569.94,0.0
55939.0,STARLINK-5918,PAYLOAD,2023-09-14 10:33:00,14.9832096,0.0002985,70.0012,51.9221,269.7884,90.2933,-6.8743e-05,-9.13e-06,0.0,0 STARLINK-5918,1 55939U 23037AB  23257.43959237 -.00000913  00000-0 -68743-4 0  9994,2 55939  70.0012  51.9221 0002985 269.7884  90.2933 14.98320960 28425,6950.221,96.108,574.16,570.011,0.0
55939.0,STARLINK-5918,PAYLOAD,2023-09-14 13:45:17,14.98320011,0.0003016,70.0011,51.5851,269.8342,90.2471,-7.4951e-05,-9.87e-06,0.0,0 STARLINK-5918,1 55939U 23037AB  23257.57311366 -.00000987  00000-0 -74951-4 0  9993,2 55939  70.0011  51.5851 0003016 269.8342  90.2471 14.98320011 28104,6950.224,96.108,574.185,569.993,0.0
55939.0,STARLINK-5918,PAYLOAD,2023-09-14 20:09:49,14.98317671,0.0002826,70.0016,50.9115,264.6081,95.4756,-7.054e-05,-9.34e-06,0.0,0 STARLINK-5918,1 55939U 23037AB  23257.84015632 -.00000934  00000-0 -70540-4 0  9992,2 55939  70.0016  50.9115 0002826 264.6081  95.4756 14.98317671 28141,6950.231,96.108,574.06,570.132,0.0
55939.0,STARLINK-5918,PAYLOAD,2023-09-15 10:35:01,14.9833105,0.0003172,70.0008,49.3977,268.872,91.2076,-5.7429e-06,-1.62e-06,0.0,0 STARLINK-5918,1 55939U 23037AB  23258.44098658 -.00000162  00000-0 -57429-5 0  9993,2 55939  70.0008  49.3977 0003172 268.8720  91.2076 14.98331050 28574,6950.19,96.107,574.259,569.85,0.0
55939.0,STARLINK-5918,PAYLOAD,2023-09-15 13:47:17,14.98331929,0.0003142,70.0011,49.0616,268.3917,91.6882,5.7417e-06,-2.4e-07,0.0,0 STARLINK-5918,1 55939U 23037AB  23258.57450558 -.00000024  00000-0  57417-5 0  9991,2 55939  70.0011  49.0616 0003142 268.3917  91.6882 14.98331929 28254,6950.187,96.107,574.236,569.868,0.0
55939.0,STARLINK-5918,PAYLOAD,2023-09-16 13:49:18,14.98323589,0.000309,70.0013,46.5363,266.92,93.1606,6.9173e-05,7.32e-06,0.0,0 STARLINK-5918,1 55939U 23037AB  23259.57590891  .00000732  00000-0  69173-4 0  9993,2 55939  70.0013  46.5363 0003090 266.9200  93.1606 14.98323589 28409,6950.213,96.107,574.225,569.93,0.0
55939.0,STARLINK-5918,PAYLOAD,2023-09-16 17:01:34,14.98323455,0.0002842,70.0018,46.2001,262.8225,97.2611,7.8149e-05,8.39e-06,0.0,0 STARLINK-5918,1 55939U 23037AB  23259.70942924  .00000839  00000-0  78149-4 0  9997,2 55939  70.0018  46.2001 0002842 262.8225  97.2611 14.98323455 28768,6950.213,96.107,574.053,570.103,0.0
55939.0,STARLINK-5918,PAYLOAD,2023-09-17 12:15:11,14.98333973,0.0003161,70.0013,44.1792,271.0395,89.0402,-1.8396e-05,-3.13e-06,0.0,0 STARLINK-5918,1 55939U 23037AB  23260.51054582 -.00000313  00000-0 -18396-4 0  9999,2 55939  70.0013  44.1792 0003161 271.0395  89.0402 14.98333973 28541,6950.181,96.107,574.243,569.849,0.0
55939.0,STARLINK-5918,PAYLOAD,2023-09-18 10:41:04,14.98327941,0.0002803,70.0025,41.8242,267.4641,92.6197,2.6054e-05,2.18e-06,0.0,0 STARLINK-5918,1 55939U 23037AB  23261.44518609  .00000218  00000-0  26054-4 0  9999,2 55939  70.0025  41.8242 0002803 267.4641  92.6197 14.98327941 29026,6950.199,96.107,574.012,570.116,0.0
55939.0,STARLINK-5918,PAYLOAD,2023-09-18 13:53:20,14.98325863,0.000291,70.0022,41.4876,268.7111,91.3715,3.2167e-07,-8.9e-07,0.0,0 STARLINK-5918,1 55939U 23037AB  23261.57870823 -.00000089  00000-0  32167-6 0  9993,2 55939  70.0022  41.4876 0002910 268.7111  91.3715 14.98325863 28704,6950.206,96.107,574.093,570.048,0.0
55939.0,STARLINK-5918,PAYLOAD,2023-09-18 18:41:44,14.98326665,0.0002884,70.0023,40.9835,268.5863,91.4965,5.2544e-05,5.34e-06,0.0,0 STARLINK-5918,1 55939U 23037AB  23261.77898659  .00000534  00000-0  52544-4 0  9995,2 55939  70.0023  40.9835 0002884 268.5863  91.4965 14.98326665 28738,6950.203,96.107,574.073,570.064,0.0
55939.0,STARLINK-5918,PAYLOAD,2023-09-19 10:43:04,14.98335793,0.0002894,70.0022,39.2994,269.0298,91.0529,5.6756e-06,-2.5e-07,0.0,0 STARLINK-5918,1 55939U 23037AB  23262.44658071 -.00000025  00000-0  56756-5 0  9998,2 55939  70.0022  39.2994 0002894 269.0298  91.0529 14.98335793 29176,6950.175,96.107,574.051,570.029,0.0
55939.0,STARLINK-5918,PAYLOAD,2023-09-20 12:21:14,14.98316333,0.0003109,70.002,36.6063,273.008,87.0724,-0.0001141,-1.454e-05,0.0,0 STARLINK-5918,1 55939U 23037AB  23263.51475491 -.00001454  00000-0 -11410-3 0  9994,2 55939  70.0020  36.6063 0003109 273.0080  87.0724 14.98316333 29335,6950.235,96.108,574.261,569.939,0.0
55939.0,STARLINK-5918,PAYLOAD,2023-09-20 13:57:22,14.98318664,0.0003085,70.0018,36.4387,270.2902,89.7903,-9.0777e-05,-1.176e-05,0.0,0 STARLINK-5918,1 55939U 23037AB  23263.58151327 -.00001176  00000-0 -90777-4 0  9995,2 55939  70.0018  36.4387 0003085 270.2902  89.7903 14.98318664 29005,6950.228,96.108,574.237,569.949,0.0
55939.0,STARLINK-5918,PAYLOAD,2023-09-20 18:45:46,14.98321722,0.0003017,70.0019,35.9328,270.0586,90.0227,-8.3029e-05,-1.083e-05,0.0,0 STARLINK-5918,1 55939U 23037AB  23263.78179243 -.00001083  00000-0 -83029-4 0  9993,2 55939  70.0019  35.9328 0003017 270.0586  90.0227 14.98321722 29032,6950.218,96.108,574.18,569.987,0.0
55939.0,STARLINK-5918,PAYLOAD,2023-09-21 10:47:06,14.98330559,0.000317,70.0027,34.2496,275.5219,84.5579,2.268e-05,1.78e-06,0.0,0 STARLINK-5918,1 55939U 23037AB  23264.44938453  .00000178  00000-0  22680-4 0  9991,2 55939  70.0027  34.2496 0003170 275.5219  84.5579 14.98330559 29476,6950.191,96.107,574.259,569.853,0.0
55939.0,STARLINK-5918,PAYLOAD,2023-09-21 12:23:14,14.98331025,0.0003127,70.0024,34.0813,276.1086,83.9717,2.5311e-05,2.09e-06,0.0,0 STARLINK-5918,1 55939U 23037AB  23264.51614430  .00000209  00000-0  25311-4 0  9994,2 55939  70.0024  34.0813 0003127 276.1086  83.9717 14.98331025 29145,6950.19,96.107,574.228,569.881,0.0
55939.0,STARLINK-5918,PAYLOAD,2023-09-21 18:47:46,14.98354212,0.000283,70.0023,33.4079,273.3308,86.7527,-0.00021394,-2.646e-05,0.0,0 STARLINK-5918,1 55939U 23037AB  23264.78317435 -.00002646  00000-0 -21394-3 0  9993,2 55939  70.0023  33.4079 0002830 273.3308  86.7527 14.98354212 29522,6950.118,96.105,573.95,570.016,0.0
55939.0,STARLINK-5918,PAYLOAD,2023-09-22 10:49:07,14.98321008,0.0002421,70.0032,31.7263,262.7087,97.3796,0.0002209,2.543e-05,0.0,0 STARLINK-5918,1 55939U 23037AB  23265.45078247  .00002543  00000-0  22090-3 0  9991,2 55939  70.0032  31.7263 0002421 262.7087  97.3796 14.98321008 29624,6950.221,96.108,573.768,570.403,0.0
55939.0,STARLINK-5918,PAYLOAD,2023-09-22 12:25:15,14.9832438,0.0002993,70.003,31.5578,267.9781,92.1035,0.00013112,1.472e-05,0.0,0 STARLINK-5918,1 55939U 23037AB  23265.51754269  .00001472  00000-0  13112-3 0  9998,2 55939  70.0030  31.5578 0002993 267.9781  92.1035 14.98324380 29299,6950.21,96.107,574.155,569.995,0.0
55939.0,STARLINK-5918,PAYLOAD,2023-09-22 18:49:47,14.98328283,0.0003121,70.0024,30.8839,270.2156,89.8645,0.00015325,1.736e-05,0.0,0 STARLINK-5918,1 55939U 23037AB  23265.78458049  .00001736  00000-0  15325-3 0  9995,2 55939  70.0024  30.8839 0003121 270.2156  89.8645 14.98328283 29332,6950.198,96.107,574.232,569.894,0.0
55939.0,STARLINK-5918,PAYLOAD,2023-09-23 01:14:19,14.98362825,0.0003016,70.0033,30.2094,274.1245,85.957,-0.00055157,-6.674e-05,0.0,0 STARLINK-5918,1 55939U 23037AB  23266.05161448 -.00006674  00000-0 -55157-3 0  9995,2 55939  70.0033  30.2094 0003016 274.1245  85.9570 14.98362825 29710,6950.091,96.105,574.053,569.86,0.0
55939.0,STARLINK-5918,PAYLOAD,2023-09-23 12:27:16,14.98333154,0.0003044,70.0026,29.032,271.5238,88.5573,-3.3065e-05,-4.88e-06,0.0,0 STARLINK-5918,1 55939U 23037AB  23266.51894193 -.00000488  00000-0 -33065-4 0  9998,2 55939  70.0026  29.0320 0003044 271.5238  88.5573 14.98333154 29786,6950.183,96.107,574.164,569.933,0.0
55939.0,STARLINK-5918,PAYLOAD,2023-09-24 10:53:09,14.98325115,0.0002914,70.003,26.6762,265.0138,95.0688,-3.4648e-05,-5.06e-06,0.0,0 STARLINK-5918,1 55939U 23037AB  23267.45358530 -.00000506  00000-0 -34648-4 0  9991,2 55939  70.0030  26.6762 0002914 265.0138  95.0688 14.98325115 29920,6950.208,96.107,574.098,570.048,0.0
55939.0,STARLINK-5918,PAYLOAD,2023-09-24 14:05:25,14.98325023,0.0002938,70.003,26.3396,264.9479,95.1345,-4.0866e-05,-5.8e-06,0.0,0 STARLINK-5918,1 55939U 23037AB  23267.58710586 -.00000580  00000-0 -40866-4 0  9999,2 55939  70.0030  26.3396 0002938 264.9479  95.1345 14.98325023 29606,6950.208,96.107,574.115,570.031,0.0
55939.0,STARLINK-5918,PAYLOAD,2023-09-24 17:17:41,14.98328548,0.0002938,70.0029,26.003,264.5736,95.5088,-5.5632e-06,-1.59e-06,0.0,0 STARLINK-5918,1 55939U 23037AB  23267.72062269 -.00000159  00000-0 -55632-5 0  9993,2 55939  70.0029  26.0030 0002938 264.5736  95.5088 14.98328548 29623,6950.197,96.107,574.104,570.02,0.0
55939.0,STARLINK-5918,PAYLOAD,2023-09-25 09:19:02,14.98332256,0.0002894,70.003,24.3204,262.072,98.0111,1.1224e-05,4.1e-07,0.0,0 STARLINK-5918,1 55939U 23037AB  23268.38821934  .00000041  00000-0  11224-4 0  9994,2 55939  70.0030  24.3204 0002894 262.0720  98.0111 14.98332256 30062,6950.186,96.107,574.062,570.04,0.0
55939.0,STARLINK-5918,PAYLOAD,2023-09-25 14:07:25,14.98336296,0.0003017,70.0025,23.8144,265.2956,94.7859,5.8916e-05,6.1e-06,0.0,0 STARLINK-5918,1 55939U 23037AB  23268.58849510  .00000610  00000-0  58916-4 0  9997,2 55939  70.0025  23.8144 0003017 265.2956  94.7859 14.98336296 29751,6950.173,96.107,574.135,569.942,0.0
